HIMAWARI-8              
1 40267U 14060A   24091.46716036 -.00000270  00000+0  00000+0 0  9997
2 40267   0.0266 157.2159 0000967 251.4561  89.4894  1.00270186 34667
